[{"OBJECT_NAME":"STARLINK-5603","OBJECT_ID":"2023-028X","EPOCH":"2026-03-09T20:16:12.587232","MEAN_MOTION":14.98338887,"ECCENTRICITY":0.00029708,"INCLINATION":69.9999,"RA_OF_ASC_NODE":224.1705,"ARG_OF_PERICENTER":283.563,"MEAN_ANOMALY":76.5198,"EPHEMERIS_TYPE":0,"CLASSIFICATION_TYPE":"U","NORAD_CAT_ID":55762,"ELEMENT_SET_NO":999,"REV_AT_EPOCH":16655,"BSTAR":0.00010793397,"MEAN_MOTION_DOT":1.195e-5,"MEAN_MOTION_DDOT":0},{"OBJECT_NAME":"COSMOS 2251 DEB","OBJECT_ID":"1993-036APM","EPOCH":"2026-03-04T21:32:54.192480","MEAN_MOTION":14.96947229,"ECCENTRICITY":0.00350755,"INCLINATION":73.891,"RA_OF_ASC_NODE":257.2416,"ARG_OF_PERICENTER":202.261,"MEAN_ANOMALY":157.7054,"EPHEMERIS_TYPE":0,"CLASSIFICATION_TYPE":"U","NORAD_CAT_ID":35670,"ELEMENT_SET_NO":999,"REV_AT_EPOCH":88955,"BSTAR":0.0015922685,"MEAN_MOTION_DOT":0.00018541,"MEAN_MOTION_DDOT":0}]
